{"type": "FeatureCollection", "features": [ {"type": "Feature", "properties": {"norad_id": 33690, "name": "FENGYUN 1C DEB", "group": "fengyun-1c-debris", "lat": -7.18782027769801, "lon": -93.37353939237228, "alt_km": 742.2700521184779, "timestamp": "2025-12-15T07:02:37.903601+00:00", "meta": {"OBJECT_NAME": "FENGYUN 1C DEB", "OBJECT_ID": "1999-025DGB", "EPOCH": "2025-12-14T05:22:11.919648", "MEAN_MOTION": 14.51488544, "ECCENTRICITY": 0.003033, "INCLINATION": 98.6129, "RA_OF_ASC_NODE": 86.626, "ARG_OF_PERICENTER": 45.0398, "MEAN_ANOMALY": 315.3248, "EPHEMERIS_TYPE": 0, "CLASSIFICATION_TYPE": "U", "NORAD_CAT_ID": 33690, "ELEMENT_SET_NO": 999, "REV_AT_EPOCH": 93241, "BSTAR": 0.0022990095, "MEAN_MOTION_DOT": 9.205e-05, "MEAN_MOTION_DDOT": 0}, "tle": {"line1": "1 33690U 99025DGB 25348.22374907  .00009205  00000+0  22990-2 0  9991", "line2": "2 33690  98.6129  86.6260 0030330  45.0398 315.3248 14.51488544932413"}}, "geometry": {"type": "Point", "coordinates": [-93.37353939237228, -7.18782027769801]}}, {"type": "Feature", "properties": {"norad_id": 33693, "name": "FENGYUN 1C DEB", "group": "fengyun-1c-debris", "lat": 35.36648286708452, "lon": 160.29938812754696, "alt_km": 870.238116461046, "timestamp": "2025-12-15T07:02:37.903611+00:00", "meta": {"OBJECT_NAME": "FENGYUN 1C DEB", "OBJECT_ID": "1999-025DGE", "EPOCH": "2025-12-12T22:50:36.263904", "MEAN_MOTION": 13.71313268, "ECCENTRICITY": 0.02261745, "INCLINATION": 99.2136, "RA_OF_ASC_NODE": 164.6662, "ARG_OF_PERICENTER": 358.2829, "MEAN_ANOMALY": 1.7519, "EPHEMERIS_TYPE": 0, "CLASSIFICATION_TYPE": "U", "NORAD_CAT_ID": 33693, "ELEMENT_SET_NO": 999, "REV_AT_EPOCH": 88234, "BSTAR": 0.0021686517, "MEAN_MOTION_DOT": 2.292e-05, "MEAN_MOTION_DDOT": 0}, "tle": {"line1": "1 33693U 99025DGE 25346.95180861  .00002292  00000+0  21687-2 0  9997", "line2": "2 33693  99.2136 164.6662 0226174 358.2829   1.7519 13.71313268882349"}}, "geometry": {"type": "Point", "coordinates": [160.29938812754696, 35.36648286708452]}}, {"type": "Feature", "properties": {"norad_id": 33698, "name": "FENGYUN 1C DEB", "group": "fengyun-1c-debris", "lat": 78.60152026442479, "lon": -172.95487795608773, "alt_km": 738.3049739905146, "timestamp": "2025-12-15T07:02:37.903621+00:00", "meta": {"OBJECT_NAME": "FENGYUN 1C DEB", "OBJECT_ID": "1999-025DGK", "EPOCH": "2025-12-14T04:11:59.150688", "MEAN_MOTION": 14.55721925, "ECCENTRICITY": 0.01374406, "INCLINATION": 99.6213, "RA_OF_ASC_NODE": 308.4698, "ARG_OF_PERICENTER": 213.5577, "MEAN_ANOMALY": 145.6854, "EPHEMERIS_TYPE": 0, "CLASSIFICATION_TYPE": "U", "NORAD_CAT_ID": 33698, "ELEMENT_SET_NO": 999, "REV_AT_EPOCH": 95657, "BSTAR": 0.00034585352, "MEAN_MOTION_DOT": 1.65e-05, "MEAN_MOTION_DDOT": 0}, "tle": {"line1": "1 33698U 99025DGK 25348.17499017  .00001650  00000+0  34585-3 0  9993", "line2": "2 33698  99.6213 308.4698 0137440 213.5577 145.6854 14.55721925956574"}}, "geometry": {"type": "Point", "coordinates": [-172.95487795608773, 78.60152026442479]}}, {"type": "Feature", "properties": {"norad_id": 33701, "name": "FENGYUN 1C DEB", "group": "fengyun-1c-debris", "lat": 37.480018981426234, "lon": -63.144619916530836, "alt_km": 960.1953596632111, "timestamp": "2025-12-15T07:02:37.903632+00:00", "meta": {"OBJECT_NAME": "FENGYUN 1C DEB", "OBJECT_ID": "1999-025DGN", "EPOCH": "2025-11-19T19:29:54.481632", "MEAN_MOTION": 14.02181122, "ECCENTRICITY": 0.01331995, "INCLINATION": 98.6598, "RA_OF_ASC_NODE": 279.346, "ARG_OF_PERICENTER": 252.9525, "MEAN_ANOMALY": 105.7013, "EPHEMERIS_TYPE": 0, "CLASSIFICATION_TYPE": "U", "NORAD_CAT_ID": 33701, "ELEMENT_SET_NO": 999, "REV_AT_EPOCH": 90184, "BSTAR": 0.0018411078, "MEAN_MOTION_DOT": 3.003e-05, "MEAN_MOTION_DDOT": 0}, "tle": {"line1": "1 33701U 99025DGN 25323.81243613  .00003003  00000+0  18411-2 0  9994", "line2": "2 33701  98.6598 279.3460 0133199 252.9525 105.7013 14.02181122901849"}}, "geometry": {"type": "Point", "coordinates": [-63.144619916530836, 37.480018981426234]}}, {"type": "Feature", "properties": {"norad_id": 33710, "name": "FENGYUN 1C DEB", "group": "fengyun-1c-debris", "lat": 15.789986447073227, "lon": -89.2986649162378, "alt_km": 817.1672487253963, "timestamp": "2025-12-15T07:02:37.903641+00:00", "meta": {"OBJECT_NAME": "FENGYUN 1C DEB", "OBJECT_ID": "1999-025DGX", "EPOCH": "2025-12-11T05:18:37.844640", "MEAN_MOTION": 14.11630786, "ECCENTRICITY": 0.00561161, "INCLINATION": 98.9793, "RA_OF_ASC_NODE": 84.0646, "ARG_OF_PERICENTER": 151.6019, "MEAN_ANOMALY": 208.823, "EPHEMERIS_TYPE": 0, "CLASSIFICATION_TYPE": "U", "NORAD_CAT_ID": 33710, "ELEMENT_SET_NO": 999, "REV_AT_EPOCH": 67635, "BSTAR": 0.0016514968, "MEAN_MOTION_DOT": 3.003e-05, "MEAN_MOTION_DDOT": 0}, "tle": {"line1": "1 33710U 99025DGX 25345.22127135  .00003003  00000+0  16515-2 0  9996", "line2": "2 33710  98.9793  84.0646 0056116 151.6019 208.8230 14.11630786676358"}}, "geometry": {"type": "Point", "coordinates": [-89.2986649162378, 15.789986447073227]}}, {"type": "Feature", "properties": {"norad_id": 33711, "name": "FENGYUN 1C DEB", "group": "fengyun-1c-debris", "lat": -32.288271578489336, "lon": -143.08629464206018, "alt_km": 965.9649355979382, "timestamp": "2025-12-15T07:02:37.903652+00:00", "meta": {"OBJECT_NAME": "FENGYUN 1C DEB", "OBJECT_ID": "1999-025DGY", "EPOCH": "2025-12-13T15:19:36.918336", "MEAN_MOTION": 14.00921353, "ECCENTRICITY": 0.00965062, "INCLINATION": 99.1839, "RA_OF_ASC_NODE": 41.1176, "ARG_OF_PERICENTER": 45.7592, "MEAN_ANOMALY": 105.2279, "EPHEMERIS_TYPE": 0, "CLASSIFICATION_TYPE": "U", "NORAD_CAT_ID": 33711, "ELEMENT_SET_NO": 999, "REV_AT_EPOCH": 91944, "BSTAR": 0.00076320516, "MEAN_MOTION_DOT": 1.144e-05, "MEAN_MOTION_DDOT": 0}, "tle": {"line1": "1 33711U 99025DGY 25347.63862174  .00001144  00000+0  76321-3 0  9999", "line2": "2 33711  99.1839  41.1176 0096506  45.7592 105.2279 14.00921353919445"}}, "geometry": {"type": "Point", "coordinates": [-143.08629464206018, -32.288271578489336]}}, {"type": "Feature", "properties": {"norad_id": 33716, "name": "FENGYUN 1C DEB", "group": "fengyun-1c-debris", "lat": 79.80081915524656, "lon": -145.33195466695923, "alt_km": 780.0457334852754, "timestamp": "2025-12-15T07:02:37.903661+00:00", "meta": {"OBJECT_NAME": "FENGYUN 1C DEB", "OBJECT_ID": "1999-025DHD", "EPOCH": "2025-12-13T01:01:00.963264", "MEAN_MOTION": 14.3266993, "ECCENTRICITY": 0.00936017, "INCLINATION": 98.8738, "RA_OF_ASC_NODE": 272.6313, "ARG_OF_PERICENTER": 357.0452, "MEAN_ANOMALY": 3.0166, "EPHEMERIS_TYPE": 0, "CLASSIFICATION_TYPE": "U", "NORAD_CAT_ID": 33716, "ELEMENT_SET_NO": 999, "REV_AT_EPOCH": 65162, "BSTAR": 0.00029543752, "MEAN_MOTION_DOT": 7.96e-06, "MEAN_MOTION_DDOT": 0}, "tle": {"line1": "1 33716U 99025DHD 25347.04237226  .00000796  00000+0  29544-3 0  9990", "line2": "2 33716  98.8738 272.6313 0093601 357.0452   3.0166 14.32669930651623"}}, "geometry": {"type": "Point", "coordinates": [-145.33195466695923, 79.80081915524656]}}, {"type": "Feature", "properties": {"norad_id": 33718, "name": "FENGYUN 1C DEB", "group": "fengyun-1c-debris", "lat": -47.726345539935465, "lon": 86.87096258612769, "alt_km": 801.772870764843, "timestamp": "2025-12-15T07:02:37.903672+00:00", "meta": {"OBJECT_NAME": "FENGYUN 1C DEB", "OBJECT_ID": "1999-025DHF", "EPOCH": "2025-12-11T12:53:11.119200", "MEAN_MOTION": 14.08062105, "ECCENTRICITY": 0.00978602, "INCLINATION": 99.6588, "RA_OF_ASC_NODE": 72.057, "ARG_OF_PERICENTER": 323.1333, "MEAN_ANOMALY": 36.3133, "EPHEMERIS_TYPE": 0, "CLASSIFICATION_TYPE": "U", "NORAD_CAT_ID": 33718, "ELEMENT_SET_NO": 999, "REV_AT_EPOCH": 69169, "BSTAR": 0.0025519977, "MEAN_MOTION_DOT": 4.491e-05, "MEAN_MOTION_DDOT": 0}, "tle": {"line1": "1 33718U 99025DHF 25345.53693425  .00004491  00000+0  25520-2 0  9996", "line2": "2 33718  99.6588  72.0570 0097860 323.1333  36.3133 14.08062105691695"}}, "geometry": {"type": "Point", "coordinates": [86.87096258612769, -47.726345539935465]}}, {"type": "Feature", "properties": {"norad_id": 33719, "name": "FENGYUN 1C DEB", "group": "fengyun-1c-debris", "lat": -35.054764571302705, "lon": 55.47797158524442, "alt_km": 826.6324818902467, "timestamp": "2025-12-15T07:02:37.903682+00:00", "meta": {"OBJECT_NAME": "FENGYUN 1C DEB", "OBJECT_ID": "1999-025DHG", "EPOCH": "2025-12-14T11:02:38.025312", "MEAN_MOTION": 14.23486531, "ECCENTRICITY": 0.00305442, "INCLINATION": 98.7751, "RA_OF_ASC_NODE": 48.4254, "ARG_OF_PERICENTER": 75.3202, "MEAN_ANOMALY": 301.5319, "EPHEMERIS_TYPE": 0, "CLASSIFICATION_TYPE": "U", "NORAD_CAT_ID": 33719, "ELEMENT_SET_NO": 999, "REV_AT_EPOCH": 92038, "BSTAR": 0.0010728565, "MEAN_MOTION_DOT": 2.407e-05, "MEAN_MOTION_DDOT": 0}, "tle": {"line1": "1 33719U 99025DHG 25348.46016233  .00002407  00000+0  10729-2 0  9998", "line2": "2 33719  98.7751  48.4254 0030544  75.3202 301.5319 14.23486531920385"}}, "geometry": {"type": "Point", "coordinates": [55.47797158524442, -35.054764571302705]}}, {"type": "Feature", "properties": {"norad_id": 33722, "name": "FENGYUN 1C DEB", "group": "fengyun-1c-debris", "lat": -22.72901739869955, "lon": 179.95270939091452, "alt_km": 739.8062511796452, "timestamp": "2025-12-15T07:02:37.903692+00:00", "meta": {"OBJECT_NAME": "FENGYUN 1C DEB", "OBJECT_ID": "1999-025DHK", "EPOCH": "2025-12-13T23:40:05.718720", "MEAN_MOTION": 14.21363837, "ECCENTRICITY": 0.01582296, "INCLINATION": 98.5749, "RA_OF_ASC_NODE": 2.3064, "ARG_OF_PERICENTER": 248.0438, "MEAN_ANOMALY": 110.3859, "EPHEMERIS_TYPE": 0, "CLASSIFICATION_TYPE": "U", "NORAD_CAT_ID": 33722, "ELEMENT_SET_NO": 999, "REV_AT_EPOCH": 92165, "BSTAR": 0.0008732036, "MEAN_MOTION_DOT": 2.12e-05, "MEAN_MOTION_DDOT": 0}, "tle": {"line1": "1 33722U 99025DHK 25347.98617730  .00002120  00000+0  87320-3 0  9991", "line2": "2 33722  98.5749   2.3064 0158229 248.0438 110.3859 14.21363837921650"}}, "geometry": {"type": "Point", "coordinates": [179.95270939091452, -22.72901739869955]}}]}